{"type": "FeatureCollection", "features": [{"type": "Feature", "properties": {"name": "Kashmir", "description": "Approximate boundary - disputed territory"}, "geometry": {"type": "Polygon", "coordinates": [[[73.89817, 34.032822], [74.123695, 34.05518], [74.214676, 34.038555], [74.262741, 33.974289], [74.219673, 33.867176], [74.023979, 33.772041], [73.956253, 33.720291], [74.028442, 33.57468], [74.1486209, 33.5288184], [74.1843975, 33.4010853], [74.170746, 33.346649], [74.102982, 33.270542], [74.024384, 33.262455], [74.014275, 33.19825], [74.111702, 33.16444], [74.176247, 33.107151], [74.205246, 33.043301], [74.254967, 33.048775], [74.349831, 33.016251], [74.346359, 32.965549], [74.318031, 32.919701], [74.413895, 32.90395], [74.466057, 32.781361], [74.531532, 32.74073], [74.614235, 32.757732], [74.641541, 32.791889], [74.697021, 32.839714], [74.675636, 32.665779], [74.746986, 32.479153], [75.231529, 32.399189], [75.314201, 32.214909], [75.8876127, 32.6649041], [76.6996691, 32.6881682], [77.6316769, 32.435727], [78.0610906, 32.8432299], [78.4380524, 33.4635251], [78.2431696, 33.8461719], [78.0470871, 34.2288335], [78.2072082, 34.1308944], [78.3082756, 34.3616866], [78.0678114, 34.932901], [77.9484038, 34.9728965], [77.7182287, 35.1871296], [77.823929, 35.501331], [77.4390366, 35.2200402], [77.156822, 35.054699], [77.018097, 35.038464], [76.95034, 34.940941], [76.870041, 34.972431], [76.749367, 34.926601], [76.681816, 34.75959], [76.561813, 34.758339], [76.474342, 34.794373], [76.283302, 34.701519], [76.157913, 34.64341], [76.036461, 34.670269], [75.932213, 34.624432], [75.749207, 34.515831], [75.615562, 34.53854], [75.377823, 34.552422], [75.24971, 34.647312], [75.142296, 34.662411], [74.8212138, 34.6671302], [74.580177, 34.7701], [74.346214, 34.790409], [74.279747, 34.768269], [74.141792, 34.6912], [74.012894, 34.709854], [73.92733, 34.645889], [73.898743, 34.49577], [73.76432, 34.371071], [73.899406, 34.359814], [73.982033, 34.239079], [73.976578, 34.211803], [73.904083, 34.12225], [73.89817, 34.032822]]]}}]}